FLOCK 2K-36             
1 42876U 17042BD  17326.67562840  .00016469  00000-0  48854-3 0  9996
2 42876  96.9946 228.7749 0014354 123.1061 237.1563 15.34782712 19942
FLOCK 2K-35             
1 42877U 17042BE  17327.19878643  .00011762  00000-0  34970-3 0  9991
2 42877  96.9942 229.2664 0014174 121.2841 238.9793 15.34789610 20025
FLOCK 2K-34             
1 42878U 17042BF  17327.19576919  .00012086  00000-0  35938-3 0  9998
2 42878  96.9941 229.2655 0014322 121.8632 238.4008 15.34774955 20024
FLOCK 2K-33             
1 42879U 17042BG  17326.80163590  .00011748  00000-0  34948-3 0  9997
2 42879  96.9944 228.8987 0014308 122.9723 237.2899 15.34768282 19960
FLOCK 2K-28             
1 42880U 17042BH  17326.77107392  .00003380  00000-0  10542-3 0  9990
2 42880  96.9949 228.7999 0014517 123.6184 236.6447 15.33774740 19956
LEMUR-2-ARTFISCHER      
1 42881U 17042BJ  17327.20925195  .00007540  00000-0  22807-3 0  9998
2 42881  96.9970 229.2959 0015047 123.2444 237.0244 15.34356467 20019
FLOCK 2K-27             
1 42882U 17042BK  17326.73481612  .00007658  00000-0  22884-3 0  9992
2 42882  96.9944 228.8438 0014432 123.4411 236.8216 15.34742330 19956
FLOCK 2K-26             
1 42883U 17042BL  17326.79715215  .00011096  00000-0  33025-3 0  9998
2 42883  96.9943 228.9068 0014241 121.8993 238.3639 15.34768610 19967
FLOCK 2K-25             
1 42884U 17042BM  17326.80315126  .00008558  00000-0  25515-3 0  9992
2 42884  96.9942 228.8947 0014345 122.6520 237.6110 15.34782150 19963
FLOCK 2K-20             
1 42885U 17042BN  17326.79578258  .00012715  00000-0  37793-3 0  9999
2 42885  96.9944 228.9110 0014459 121.8790 238.3863 15.34774886 19965
FLOCK 2K-19             
1 42886U 17042BP  17326.79876148  .00009227  00000-0  27489-3 0  9994
2 42886  96.9945 228.9082 0014459 122.2764 237.9883 15.34782596 19965
FLOCK 2K-18             
1 42887U 17042BQ  17327.30849614  .00012344  00000-0  36665-3 0  9991
2 42887  96.9942 229.4142 0014837 119.6547 240.6177 15.34798261 20049
FLOCK 2K-17             
1 42888U 17042BR  17326.72607633  .00014039  00000-0  41707-3 0  9996
2 42888  96.9937 228.8458 0014676 120.8658 239.4032 15.34764862 19959
FLOCK 2K-16             
1 42889U 17042BS  17326.79287139  .00012430  00000-0  36908-3 0  9999
2 42889  96.9942 228.9150 0014321 120.3961 239.8700 15.34814218 19963
FLOCK 2K-15             
1 42890U 17042BT  17326.78549324  .00007850  00000-0  23399-3 0  9997
2 42890  96.9949 228.9294 0014773 120.9774 239.2924 15.34809722 19966
FLOCK 2K-13             
1 42891U 17042BU  17326.79425388  .00008054  00000-0  24019-3 0  9999
2 42891  96.9939 228.9107 0014726 118.7598 241.5127 15.34788512 19960
FLOCK 2K-14             
1 42892U 17042BV  17326.72323102  .00012472  00000-0  37017-3 0  9995
2 42892  96.9936 228.8499 0014860 120.3175 239.9541 15.34817625 19958
FLOCK 2K-12             
1 42893U 17042BW  17326.78251629  .00004228  00000-0  12713-3 0  9992
2 42893  96.9948 228.9282 0014804 121.1797 239.0901 15.34796182 19966
FLOCK 2K-11             
1 42894U 17042BX  17326.72476439  .00009145  00000-0  27216-3 0  9992
2 42894  96.9944 228.8576 0014790 118.2030 242.0710 15.34812955 19957
FLOCK 2K-10             
1 42895U 17042BY  17327.17519838  .00006637  00000-0  19812-3 0  9990
2 42895  96.9939 229.2893 0014945 118.4072 241.8680 15.34821423 20022
FLOCK 2K-09             
1 42896U 17042BZ  17326.78092232  .00011912  00000-0  35403-3 0  9997
2 42896  96.9947 228.9283 0014721 119.1565 241.1154 15.34789333 20132
FLOCK 2K-06             
1 42897U 17042CA  17326.68914774  .00008758  00000-0  26129-3 0  9990
2 42897  96.9942 228.7567 0012543 131.2247 229.0080 15.34779596 19943
SILU-1 (SILKROAD 1)     
1 42903U 17021F   17327.44188877  .00022311  00000-0  23778-3 0  9995
2 42903  42.7788 126.5332 0009431 292.0507  94.6693 15.63463682 17649
FLOCK 3M-1              
1 42995U 17068J   17327.28911433  .00001457  00000-0  74627-4 0  9999
2 42995  97.3428  80.8259 0018858 143.5150 216.7374 15.18004492  3394
FLOCK 3M-3              
1 42996U 17068K   17327.28675738  .00001451  00000-0  74023-4 0  9999
2 42996  97.3383  80.8141 0018175 144.1807 216.0650 15.18164651  3397
FLOCK 3M-4              
1 42997U 17068L   17327.35149981  .00001370  00000-0  69930-4 0  9995
2 42997  97.3595  80.9517 0017941 144.8449 215.3973 15.18241305  3404
FLOCK 3M-2              
1 42998U 17068M   17327.28121740  .00001490  00000-0  75172-4 0  9999
2 42998  97.3496  80.8589 0016256 140.9067 219.3346 15.18541566  3392
ECAMSAT                 
1 43019U 98067NG  17327.50111889  .00007712  00000-0  12061-3 0  9990
2 43019  51.6404 324.1088 0005738 120.9919 239.1636 15.54810241 86521
ASTERIA                 
1 43020U 98067NH  17327.37274456  .00016578  00000-0  25116-3 0  9992
2 43020  51.6407 324.7516 0003016 109.1312 251.0006 15.54775459   421
DELLINGR                
1 43021U 98067NJ  17327.37284354  .00010366  00000-0  16008-3 0  9990
2 43021  51.6407 324.7522 0002844 109.0723 251.0576 15.54734697   423
TECHEDSAT 6             
1 43026U 98067NK  17327.50101910  .00065303  00000-0  94477-3 0  9993
2 43026  51.6407 324.1084 0002306  85.2779 274.8475 15.55285456   341
OSIRIS                  
1 43027U 98067NL  17327.43689381  .00022134  00000-0  32830-3 0  9999
2 43027  51.6406 324.4310 0004556  89.1789 270.9724 15.55137569   311
